[{"OBJECT_NAME":"GHGSAT-C5","OBJECT_ID":"2022-057N","EPOCH":"2026-03-09T21:50:12.501024","MEAN_MOTION":15.32921902,"ECCENTRICITY":0.00082696,"INCLINATION":97.6522,"RA_OF_ASC_NODE":212.4963,"ARG_OF_PERICENTER":109.8004,"MEAN_ANOMALY":250.413,"EPHEMERIS_TYPE":0,"CLASSIFICATION_TYPE":"U","NORAD_CAT_ID":52744,"ELEMENT_SET_NO":999,"REV_AT_EPOCH":21032,"BSTAR":0.00029214604,"MEAN_MOTION_DOT":9.218e-5,"MEAN_MOTION_DDOT":0},{"OBJECT_NAME":"STARLINK-34771","OBJECT_ID":"2025-167A","EPOCH":"2026-03-09T03:37:42.149856","MEAN_MOTION":15.30197852,"ECCENTRICITY":0.00010794,"INCLINATION":53.1615,"RA_OF_ASC_NODE":26.6352,"ARG_OF_PERICENTER":70.3215,"MEAN_ANOMALY":289.7903,"EPHEMERIS_TYPE":0,"CLASSIFICATION_TYPE":"U","NORAD_CAT_ID":65078,"ELEMENT_SET_NO":999,"REV_AT_EPOCH":3343,"BSTAR":0.0011303519,"MEAN_MOTION_DOT":0.00033266,"MEAN_MOTION_DDOT":0}]
